[{"OBJECT_NAME":"NUSAT-49 (KLARA DAN VON NEUMANN)","OBJECT_ID":"2024-149AJ","EPOCH":"2026-03-09T19:09:16.004160","MEAN_MOTION":15.30828857,"ECCENTRICITY":0.00011321,"INCLINATION":97.3807,"RA_OF_ASC_NODE":150.738,"ARG_OF_PERICENTER":286.7761,"MEAN_ANOMALY":73.3356,"EPHEMERIS_TYPE":0,"CLASSIFICATION_TYPE":"U","NORAD_CAT_ID":60500,"ELEMENT_SET_NO":999,"REV_AT_EPOCH":8693,"BSTAR":0.00043568345,"MEAN_MOTION_DOT":0.00012912,"MEAN_MOTION_DDOT":0},{"OBJECT_NAME":"STARLINK-34768","OBJECT_ID":"2025-167T","EPOCH":"2026-03-09T04:46:49.943424","MEAN_MOTION":15.30193923,"ECCENTRICITY":0.00011136,"INCLINATION":53.162,"RA_OF_ASC_NODE":29.0121,"ARG_OF_PERICENTER":92.0767,"MEAN_ANOMALY":268.0361,"EPHEMERIS_TYPE":0,"CLASSIFICATION_TYPE":"U","NORAD_CAT_ID":65095,"ELEMENT_SET_NO":999,"REV_AT_EPOCH":3340,"BSTAR":0.00095792648,"MEAN_MOTION_DOT":0.00028114,"MEAN_MOTION_DDOT":0}]
